[{"OBJECT_NAME":"LEMUR-2-ALISIA","OBJECT_ID":"2025-009DB","EPOCH":"2026-04-27T04:24:51.727392","MEAN_MOTION":15.01950874,"ECCENTRICITY":0.00030801,"INCLINATION":97.6918,"RA_OF_ASC_NODE":199.7267,"ARG_OF_PERICENTER":42.1305,"MEAN_ANOMALY":318.0155,"EPHEMERIS_TYPE":0,"CLASSIFICATION_TYPE":"U","NORAD_CAT_ID":62706,"ELEMENT_SET_NO":999,"REV_AT_EPOCH":9250,"BSTAR":0.00086717831,"MEAN_MOTION_DOT":0.00011301,"MEAN_MOTION_DDOT":0},{"OBJECT_NAME":"LEMUR-2-ROUNDTRIPPER","OBJECT_ID":"2025-009DG","EPOCH":"2026-04-27T12:12:51.986592","MEAN_MOTION":15.02974113,"ECCENTRICITY":0.0002886,"INCLINATION":97.7242,"RA_OF_ASC_NODE":200.296,"ARG_OF_PERICENTER":314.0756,"MEAN_ANOMALY":46.0231,"EPHEMERIS_TYPE":0,"CLASSIFICATION_TYPE":"U","NORAD_CAT_ID":62711,"ELEMENT_SET_NO":999,"REV_AT_EPOCH":7001,"BSTAR":0.00078383,"MEAN_MOTION_DOT":0.00010488,"MEAN_MOTION_DDOT":0},{"OBJECT_NAME":"LEMUR-2-MYNAMEISJEFF","OBJECT_ID":"2025-009DH","EPOCH":"2026-04-27T12:10:38.990208","MEAN_MOTION":15.02969562,"ECCENTRICITY":0.0002083,"INCLINATION":97.7292,"RA_OF_ASC_NODE":200.6447,"ARG_OF_PERICENTER":14.5162,"MEAN_ANOMALY":345.6122,"EPHEMERIS_TYPE":0,"CLASSIFICATION_TYPE":"U","NORAD_CAT_ID":62712,"ELEMENT_SET_NO":999,"REV_AT_EPOCH":7001,"BSTAR":0.00075852,"MEAN_MOTION_DOT":0.00010145,"MEAN_MOTION_DDOT":0},{"OBJECT_NAME":"LEMUR-2-LEIA-PHILIP","OBJECT_ID":"2025-052AN","EPOCH":"2026-04-27T09:52:49.436256","MEAN_MOTION":14.97169912,"ECCENTRICITY":0.0005085,"INCLINATION":97.6895,"RA_OF_ASC_NODE":10.2088,"ARG_OF_PERICENTER":49.8264,"MEAN_ANOMALY":310.3403,"EPHEMERIS_TYPE":0,"CLASSIFICATION_TYPE":"U","NORAD_CAT_ID":63246,"ELEMENT_SET_NO":999,"REV_AT_EPOCH":6107,"BSTAR":0.00019658,"MEAN_MOTION_DOT":2.214e-5,"MEAN_MOTION_DDOT":0},{"OBJECT_NAME":"LEMUR-2-LIA-MARTIN","OBJECT_ID":"2025-052AQ","EPOCH":"2026-04-27T10:16:04.607040","MEAN_MOTION":14.97338229,"ECCENTRICITY":0.0003428,"INCLINATION":97.6943,"RA_OF_ASC_NODE":10.6358,"ARG_OF_PERICENTER":22.3552,"MEAN_ANOMALY":337.7819,"EPHEMERIS_TYPE":0,"CLASSIFICATION_TYPE":"U","NORAD_CAT_ID":63248,"ELEMENT_SET_NO":999,"REV_AT_EPOCH":6108,"BSTAR":0.0005436,"MEAN_MOTION_DOT":6.255e-5,"MEAN_MOTION_DDOT":0},{"OBJECT_NAME":"LEMUR-2-DELOITTE-1","OBJECT_ID":"2025-052BB","EPOCH":"2026-04-27T06:21:57.871296","MEAN_MOTION":14.97233741,"ECCENTRICITY":8.46e-5,"INCLINATION":97.699,"RA_OF_ASC_NODE":10.7996,"ARG_OF_PERICENTER":60.9722,"MEAN_ANOMALY":299.1585,"EPHEMERIS_TYPE":0,"CLASSIFICATION_TYPE":"U","NORAD_CAT_ID":63259,"ELEMENT_SET_NO":999,"REV_AT_EPOCH":6107,"BSTAR":0.0004437,"MEAN_MOTION_DOT":5.08e-5,"MEAN_MOTION_DDOT":0},{"OBJECT_NAME":"LEMUR-2-EMERSONROSE","OBJECT_ID":"2025-052BD","EPOCH":"2026-04-27T05:22:22.768032","MEAN_MOTION":14.98695146,"ECCENTRICITY":8.91e-5,"INCLINATION":97.6946,"RA_OF_ASC_NODE":11.2148,"ARG_OF_PERICENTER":196.8315,"MEAN_ANOMALY":163.2878,"EPHEMERIS_TYPE":0,"CLASSIFICATION_TYPE":"U","NORAD_CAT_ID":63261,"ELEMENT_SET_NO":999,"REV_AT_EPOCH":6110,"BSTAR":0.00039766,"MEAN_MOTION_DOT":4.723e-5,"MEAN_MOTION_DDOT":0},{"OBJECT_NAME":"LEMUR-2-MARACHE-FRAN","OBJECT_ID":"2025-052BE","EPOCH":"2026-04-27T11:55:39.680256","MEAN_MOTION":14.99519129,"ECCENTRICITY":0.0002953,"INCLINATION":97.6926,"RA_OF_ASC_NODE":11.7296,"ARG_OF_PERICENTER":182.6098,"MEAN_ANOMALY":177.511,"EPHEMERIS_TYPE":0,"CLASSIFICATION_TYPE":"U","NORAD_CAT_ID":63262,"ELEMENT_SET_NO":999,"REV_AT_EPOCH":6116,"BSTAR":0.00051916,"MEAN_MOTION_DOT":6.32e-5,"MEAN_MOTION_DDOT":0},{"OBJECT_NAME":"LEMUR-2-THEFALCONER","OBJECT_ID":"2025-052BG","EPOCH":"2026-04-27T10:02:20.102208","MEAN_MOTION":14.97027602,"ECCENTRICITY":0.0002401,"INCLINATION":97.6914,"RA_OF_ASC_NODE":10.6248,"ARG_OF_PERICENTER":136.3651,"MEAN_ANOMALY":223.7761,"EPHEMERIS_TYPE":0,"CLASSIFICATION_TYPE":"U","NORAD_CAT_ID":63264,"ELEMENT_SET_NO":999,"REV_AT_EPOCH":6109,"BSTAR":0.00039308,"MEAN_MOTION_DOT":4.47e-5,"MEAN_MOTION_DDOT":0},{"OBJECT_NAME":"LEMUR-2-UNTITLED-SC","OBJECT_ID":"2025-061A","EPOCH":"2026-04-27T10:31:19.011072","MEAN_MOTION":15.13104244,"ECCENTRICITY":0.0020822,"INCLINATION":97.5606,"RA_OF_ASC_NODE":93.1954,"ARG_OF_PERICENTER":81.1107,"MEAN_ANOMALY":279.248,"EPHEMERIS_TYPE":0,"CLASSIFICATION_TYPE":"U","NORAD_CAT_ID":63351,"ELEMENT_SET_NO":999,"REV_AT_EPOCH":5991,"BSTAR":0.00023017,"MEAN_MOTION_DOT":4.029e-5,"MEAN_MOTION_DDOT":0},{"OBJECT_NAME":"LEMUR-2-ESPERANZA","OBJECT_ID":"2025-061B","EPOCH":"2026-04-27T10:02:49.223328","MEAN_MOTION":15.13191558,"ECCENTRICITY":0.0020325,"INCLINATION":97.5613,"RA_OF_ASC_NODE":93.2575,"ARG_OF_PERICENTER":80.6021,"MEAN_ANOMALY":279.7506,"EPHEMERIS_TYPE":0,"CLASSIFICATION_TYPE":"U","NORAD_CAT_ID":63352,"ELEMENT_SET_NO":999,"REV_AT_EPOCH":5991,"BSTAR":0.00026875,"MEAN_MOTION_DOT":4.727e-5,"MEAN_MOTION_DDOT":0},{"OBJECT_NAME":"LEMUR-2-KREMPEL-BRO2","OBJECT_ID":"2025-061C","EPOCH":"2026-04-27T11:02:26.374272","MEAN_MOTION":15.13618934,"ECCENTRICITY":0.0021278,"INCLINATION":97.5661,"RA_OF_ASC_NODE":93.7674,"ARG_OF_PERICENTER":73.6606,"MEAN_ANOMALY":286.6963,"EPHEMERIS_TYPE":0,"CLASSIFICATION_TYPE":"U","NORAD_CAT_ID":63353,"ELEMENT_SET_NO":999,"REV_AT_EPOCH":5993,"BSTAR":0.00027763,"MEAN_MOTION_DOT":4.947e-5,"MEAN_MOTION_DDOT":0},{"OBJECT_NAME":"LEMUR-2-THERMORAPTOR","OBJECT_ID":"2025-061D","EPOCH":"2026-04-27T10:40:12.282240","MEAN_MOTION":15.13686549,"ECCENTRICITY":0.0021018,"INCLINATION":97.5667,"RA_OF_ASC_NODE":93.8184,"ARG_OF_PERICENTER":72.8735,"MEAN_ANOMALY":287.4796,"EPHEMERIS_TYPE":0,"CLASSIFICATION_TYPE":"U","NORAD_CAT_ID":63354,"ELEMENT_SET_NO":999,"REV_AT_EPOCH":5993,"BSTAR":0.00024093,"MEAN_MOTION_DOT":4.291e-5,"MEAN_MOTION_DDOT":0},{"OBJECT_NAME":"LEMUR-2-NEUROSPICY","OBJECT_ID":"2025-061E","EPOCH":"2026-04-27T10:04:53.088096","MEAN_MOTION":15.13800461,"ECCENTRICITY":0.00188,"INCLINATION":97.5592,"RA_OF_ASC_NODE":93.4598,"ARG_OF_PERICENTER":76.3706,"MEAN_ANOMALY":283.9618,"EPHEMERIS_TYPE":0,"CLASSIFICATION_TYPE":"U","NORAD_CAT_ID":63355,"ELEMENT_SET_NO":999,"REV_AT_EPOCH":5993,"BSTAR":0.00028182,"MEAN_MOTION_DOT":5.042e-5,"MEAN_MOTION_DDOT":0},{"OBJECT_NAME":"LEMUR-2-TILLINFINITY","OBJECT_ID":"2025-061F","EPOCH":"2026-04-27T09:48:53.584128","MEAN_MOTION":15.14386199,"ECCENTRICITY":0.001991,"INCLINATION":97.5579,"RA_OF_ASC_NODE":93.7035,"ARG_OF_PERICENTER":65.5766,"MEAN_ANOMALY":294.754,"EPHEMERIS_TYPE":0,"CLASSIFICATION_TYPE":"U","NORAD_CAT_ID":63356,"ELEMENT_SET_NO":999,"REV_AT_EPOCH":5995,"BSTAR":0.00032242,"MEAN_MOTION_DOT":5.879e-5,"MEAN_MOTION_DDOT":0},{"OBJECT_NAME":"LEMUR-2-KREMPEL-BRO1","OBJECT_ID":"2025-061G","EPOCH":"2026-04-27T09:01:20.771040","MEAN_MOTION":15.14197791,"ECCENTRICITY":0.0020612,"INCLINATION":97.5578,"RA_OF_ASC_NODE":93.6008,"ARG_OF_PERICENTER":66.7196,"MEAN_ANOMALY":293.6202,"EPHEMERIS_TYPE":0,"CLASSIFICATION_TYPE":"U","NORAD_CAT_ID":63357,"ELEMENT_SET_NO":999,"REV_AT_EPOCH":5994,"BSTAR":0.00026222,"MEAN_MOTION_DOT":4.744e-5,"MEAN_MOTION_DDOT":0}]
