LEMUR-2-ALISIA          
1 62706U 25009DB  26117.18393203  .00011301  00000+0  86718-3 0  9991
2 62706  97.6918 199.7267 0003080  42.1305 318.0155 15.01950874 92509
LEMUR-2-ROUNDTRIPPER    
1 62711U 25009DG  26117.50893503  .00010488  00000+0  78383-3 0  9995
2 62711  97.7242 200.2960 0002886 314.0756  46.0231 15.02974113 70016
LEMUR-2-MYNAMEISJEFF    
1 62712U 25009DH  26117.50739572  .00010145  00000+0  75852-3 0  9999
2 62712  97.7292 200.6447 0002083  14.5162 345.6122 15.02969562 70017
LEMUR-2-LEIA-PHILIP     
1 63246U 25052AN  26117.41168329  .00002214  00000+0  19658-3 0  9996
2 63246  97.6895  10.2088 0005085  49.8264 310.3403 14.97169912 61074
LEMUR-2-LIA-MARTIN      
1 63248U 25052AQ  26117.42783110  .00006255  00000+0  54360-3 0  9998
2 63248  97.6943  10.6358 0003428  22.3552 337.7819 14.97338229 61083
LEMUR-2-DELOITTE-1      
1 63259U 25052BB  26117.26525314  .00005080  00000+0  44370-3 0  9997
2 63259  97.6990  10.7996 0000846  60.9722 299.1585 14.97233741 61077
LEMUR-2-EMERSONROSE     
1 63261U 25052BD  26117.22387463  .00004723  00000+0  39766-3 0  9993
2 63261  97.6946  11.2148 0000891 196.8315 163.2878 14.98695146 61105
LEMUR-2-MARACHE-FRAN    
1 63262U 25052BE  26117.49698704  .00006320  00000+0  51916-3 0  9992
2 63262  97.6926  11.7296 0002953 182.6098 177.5110 14.99519129 61165
LEMUR-2-THEFALCONER     
1 63264U 25052BG  26117.41828822  .00004470  00000+0  39308-3 0  9997
2 63264  97.6914  10.6248 0002401 136.3651 223.7761 14.97027602 61094
LEMUR-2-UNTITLED-SC     
1 63351U 25061A   26117.43841448  .00004029  00000+0  23017-3 0  9995
2 63351  97.5606  93.1954 0020822  81.1107 279.2480 15.13104244 59917
LEMUR-2-ESPERANZA       
1 63352U 25061B   26117.41862527  .00004727  00000+0  26875-3 0  9995
2 63352  97.5613  93.2575 0020325  80.6021 279.7506 15.13191558 59911
LEMUR-2-KREMPEL-BRO2    
1 63353U 25061C   26117.46002748  .00004947  00000+0  27763-3 0  9993
2 63353  97.5661  93.7674 0021278  73.6606 286.6963 15.13618934 59937
LEMUR-2-THERMORAPTOR    
1 63354U 25061D   26117.44458660  .00004291  00000+0  24093-3 0  9995
2 63354  97.5667  93.8184 0021018  72.8735 287.4796 15.13686549 59937
LEMUR-2-NEUROSPICY      
1 63355U 25061E   26117.42005889  .00005042  00000+0  28182-3 0  9993
2 63355  97.5592  93.4598 0018800  76.3706 283.9618 15.13800461 59937
LEMUR-2-TILLINFINITY    
1 63356U 25061F   26117.40895352  .00005879  00000+0  32242-3 0  9994
2 63356  97.5579  93.7035 0019910  65.5766 294.7540 15.14386199 59955
LEMUR-2-KREMPEL-BRO1    
1 63357U 25061G   26117.37593485  .00004744  00000+0  26222-3 0  9994
2 63357  97.5578  93.6008 0020612  66.7196 293.6202 15.14197791 59945
